[Satellite]
VERSION=1.1
NAME=ITUPSAT 1
NICKNAME=ITUPSAT 1
TLE1=1 35935U 09051E   17186.19248267  .00000070  00000-0  27270-4 0  9991
TLE2=2 35935  98.5128 326.5970 0007894 194.0897 166.0080 14.55333379412852
